STARLINK-4140           
1 53259U 22086T   25244.52794542 -.00000438  00000+0 -94198-5 0  9999
2 53259  53.2197 322.9502 0001453  92.3323 267.7836 15.08846400172512
STARLINK-4062           
1 53261U 22086V   25244.48750294  .00000194  00000+0  30293-4 0  9995
2 53261  53.2178 323.4846 0001356  95.8450 264.2697 15.08842415172500
STARLINK-4085           
1 53262U 22086W   25244.49486009 -.00000119  00000+0  10603-4 0  9998
2 53262  53.2194 323.4493 0001469  97.4209 262.6951 15.08840507172507
STARLINK-4130           
1 53263U 22086X   25244.48382389  .00000964  00000+0  78675-4 0  9994
2 53263  53.2191 323.5002 0001486  86.2633 273.8529 15.08842493172509
STARLINK-3950           
1 53264U 22086Y   25244.49117878  .00000703  00000+0  62239-4 0  9995
2 53264  53.2166 323.4663 0001405  92.3050 267.8103 15.08841578172500
STARLINK-4097           
1 53265U 22086Z   25244.54270868  .00000780  00000+0  67121-4 0  9991
2 53265  53.2182 323.2386 0001439  81.5308 278.5847 15.08839155172515
STARLINK-4058           
1 53266U 22086AA  25244.54638421  .00001379  00000+0  10472-3 0  9996
2 53266  53.2178 323.2203 0001200  89.8946 270.2183 15.08840192172519
STARLINK-4060           
1 53267U 22086AB  25244.53534917  .00000084  00000+0  23384-4 0  9990
2 53267  53.2189 323.2727 0001428  89.8125 270.3031 15.08836932172514
STARLINK-4109           
1 53268U 22086AC  25244.53902904  .00000083  00000+0  23279-4 0  9998
2 53268  53.2181 323.2560 0001368  87.2746 272.8403 15.08833629172516
STARLINK-4057           
1 53269U 22086AD  25244.46266603  .00000411  00000+0  43914-4 0  9993
2 53269  53.2190 313.5957 0001629  93.9766 266.1412 15.08836312172636
STARLINK-4122           
1 53272U 22086AG  25244.46633831 -.00000948  00000+0 -41442-4 0  9999
2 53272  53.2186 313.5790 0001263  93.9950 266.1186 15.08853685172639
STARLINK-4051           
1 53273U 22086AH  25244.44794474 -.00000119  00000+0  10642-4 0  9996
2 53273  53.2179 313.6654 0001364  88.3244 271.7905 15.08837967172623
STARLINK-4050           
1 53274U 22086AJ  25244.45898698  .00001151  00000+0  90421-4 0  9990
2 53274  53.2197 313.6129 0001615 107.7987 252.3181 15.08840691172630
STARLINK-4179           
1 53275U 22086AK  25244.51050711  .00002117  00000+0  15103-3 0  9990
2 53275  53.2180 313.3858 0001271  89.7430 270.3708 15.08841733172632
STARLINK-4174           
1 53276U 22086AL  25244.51786474  .00000466  00000+0  47374-4 0  9994
2 53276  53.2173 313.3521 0001370  85.3893 274.7256 15.08837278172632
STARLINK-4178           
1 53277U 22086AM  25244.50314960  .00000882  00000+0  73476-4 0  9995
2 53277  53.2188 313.4465 0001339  94.7477 265.3668 15.08834537172632
