[{"OBJECT_NAME":"STARLINK-4140","OBJECT_ID":"2022-086T","EPOCH":"2025-09-01T12:40:14.484288","MEAN_MOTION":15.088464,"ECCENTRICITY":0.00014539,"INCLINATION":53.2197,"RA_OF_ASC_NODE":322.9502,"ARG_OF_PERICENTER":92.3323,"MEAN_ANOMALY":267.7836,"EPHEMERIS_TYPE":0,"CLASSIFICATION_TYPE":"U","NORAD_CAT_ID":53259,"ELEMENT_SET_NO":999,"REV_AT_EPOCH":17251,"BSTAR":-9.419799e-6,"MEAN_MOTION_DOT":-4.38e-6,"MEAN_MOTION_DDOT":0},{"OBJECT_NAME":"STARLINK-4062","OBJECT_ID":"2022-086V","EPOCH":"2025-09-01T11:42:00.254016","MEAN_MOTION":15.08842415,"ECCENTRICITY":0.0001356,"INCLINATION":53.2178,"RA_OF_ASC_NODE":323.4846,"ARG_OF_PERICENTER":95.845,"MEAN_ANOMALY":264.2697,"EPHEMERIS_TYPE":0,"CLASSIFICATION_TYPE":"U","NORAD_CAT_ID":53261,"ELEMENT_SET_NO":999,"REV_AT_EPOCH":17250,"BSTAR":3.0292791e-5,"MEAN_MOTION_DOT":1.94e-6,"MEAN_MOTION_DDOT":0},{"OBJECT_NAME":"STARLINK-4085","OBJECT_ID":"2022-086W","EPOCH":"2025-09-01T11:52:35.911776","MEAN_MOTION":15.08840507,"ECCENTRICITY":0.00014699,"INCLINATION":53.2194,"RA_OF_ASC_NODE":323.4493,"ARG_OF_PERICENTER":97.4209,"MEAN_ANOMALY":262.6951,"EPHEMERIS_TYPE":0,"CLASSIFICATION_TYPE":"U","NORAD_CAT_ID":53262,"ELEMENT_SET_NO":999,"REV_AT_EPOCH":17250,"BSTAR":1.0602947e-5,"MEAN_MOTION_DOT":-1.19e-6,"MEAN_MOTION_DDOT":0},{"OBJECT_NAME":"STARLINK-4130","OBJECT_ID":"2022-086X","EPOCH":"2025-09-01T11:36:42.384096","MEAN_MOTION":15.08842493,"ECCENTRICITY":0.0001486,"INCLINATION":53.2191,"RA_OF_ASC_NODE":323.5002,"ARG_OF_PERICENTER":86.2633,"MEAN_ANOMALY":273.8529,"EPHEMERIS_TYPE":0,"CLASSIFICATION_TYPE":"U","NORAD_CAT_ID":53263,"ELEMENT_SET_NO":999,"REV_AT_EPOCH":17250,"BSTAR":7.8674637e-5,"MEAN_MOTION_DOT":9.64e-6,"MEAN_MOTION_DDOT":0},{"OBJECT_NAME":"STARLINK-3950","OBJECT_ID":"2022-086Y","EPOCH":"2025-09-01T11:47:17.846592","MEAN_MOTION":15.08841578,"ECCENTRICITY":0.00014052,"INCLINATION":53.2166,"RA_OF_ASC_NODE":323.4663,"ARG_OF_PERICENTER":92.305,"MEAN_ANOMALY":267.8103,"EPHEMERIS_TYPE":0,"CLASSIFICATION_TYPE":"U","NORAD_CAT_ID":53264,"ELEMENT_SET_NO":999,"REV_AT_EPOCH":17250,"BSTAR":6.2239499e-5,"MEAN_MOTION_DOT":7.03e-6,"MEAN_MOTION_DDOT":0},{"OBJECT_NAME":"STARLINK-4097","OBJECT_ID":"2022-086Z","EPOCH":"2025-09-01T13:01:30.029952","MEAN_MOTION":15.08839155,"ECCENTRICITY":0.00014396,"INCLINATION":53.2182,"RA_OF_ASC_NODE":323.2386,"ARG_OF_PERICENTER":81.5308,"MEAN_ANOMALY":278.5847,"EPHEMERIS_TYPE":0,"CLASSIFICATION_TYPE":"U","NORAD_CAT_ID":53265,"ELEMENT_SET_NO":999,"REV_AT_EPOCH":17251,"BSTAR":6.7120781e-5,"MEAN_MOTION_DOT":7.8e-6,"MEAN_MOTION_DDOT":0},{"OBJECT_NAME":"STARLINK-4058","OBJECT_ID":"2022-086AA","EPOCH":"2025-09-01T13:06:47.595744","MEAN_MOTION":15.08840192,"ECCENTRICITY":0.00012009,"INCLINATION":53.2178,"RA_OF_ASC_NODE":323.2203,"ARG_OF_PERICENTER":89.8946,"MEAN_ANOMALY":270.2183,"EPHEMERIS_TYPE":0,"CLASSIFICATION_TYPE":"U","NORAD_CAT_ID":53266,"ELEMENT_SET_NO":999,"REV_AT_EPOCH":17251,"BSTAR":0.0001047207,"MEAN_MOTION_DOT":1.379e-5,"MEAN_MOTION_DDOT":0},{"OBJECT_NAME":"STARLINK-4060","OBJECT_ID":"2022-086AB","EPOCH":"2025-09-01T12:50:54.168288","MEAN_MOTION":15.08836932,"ECCENTRICITY":0.00014285,"INCLINATION":53.2189,"RA_OF_ASC_NODE":323.2727,"ARG_OF_PERICENTER":89.8125,"MEAN_ANOMALY":270.3031,"EPHEMERIS_TYPE":0,"CLASSIFICATION_TYPE":"U","NORAD_CAT_ID":53267,"ELEMENT_SET_NO":999,"REV_AT_EPOCH":17251,"BSTAR":2.3383663e-5,"MEAN_MOTION_DOT":8.4e-7,"MEAN_MOTION_DDOT":0},{"OBJECT_NAME":"STARLINK-4109","OBJECT_ID":"2022-086AC","EPOCH":"2025-09-01T12:56:12.109056","MEAN_MOTION":15.08833629,"ECCENTRICITY":0.00013685,"INCLINATION":53.2181,"RA_OF_ASC_NODE":323.256,"ARG_OF_PERICENTER":87.2746,"MEAN_ANOMALY":272.8403,"EPHEMERIS_TYPE":0,"CLASSIFICATION_TYPE":"U","NORAD_CAT_ID":53268,"ELEMENT_SET_NO":999,"REV_AT_EPOCH":17251,"BSTAR":2.3279188e-5,"MEAN_MOTION_DOT":8.3e-7,"MEAN_MOTION_DDOT":0},{"OBJECT_NAME":"STARLINK-4057","OBJECT_ID":"2022-086AD","EPOCH":"2025-09-01T11:06:14.344992","MEAN_MOTION":15.08836312,"ECCENTRICITY":0.00016291,"INCLINATION":53.219,"RA_OF_ASC_NODE":313.5957,"ARG_OF_PERICENTER":93.9766,"MEAN_ANOMALY":266.1412,"EPHEMERIS_TYPE":0,"CLASSIFICATION_TYPE":"U","NORAD_CAT_ID":53269,"ELEMENT_SET_NO":999,"REV_AT_EPOCH":17263,"BSTAR":4.3913691e-5,"MEAN_MOTION_DOT":4.11e-6,"MEAN_MOTION_DDOT":0},{"OBJECT_NAME":"STARLINK-4122","OBJECT_ID":"2022-086AG","EPOCH":"2025-09-01T11:11:31.629984","MEAN_MOTION":15.08853685,"ECCENTRICITY":0.00012635,"INCLINATION":53.2186,"RA_OF_ASC_NODE":313.579,"ARG_OF_PERICENTER":93.995,"MEAN_ANOMALY":266.1186,"EPHEMERIS_TYPE":0,"CLASSIFICATION_TYPE":"U","NORAD_CAT_ID":53272,"ELEMENT_SET_NO":999,"REV_AT_EPOCH":17263,"BSTAR":-4.144163e-5,"MEAN_MOTION_DOT":-9.48e-6,"MEAN_MOTION_DDOT":0},{"OBJECT_NAME":"STARLINK-4051","OBJECT_ID":"2022-086AH","EPOCH":"2025-09-01T10:45:02.425536","MEAN_MOTION":15.08837967,"ECCENTRICITY":0.00013648,"INCLINATION":53.2179,"RA_OF_ASC_NODE":313.6654,"ARG_OF_PERICENTER":88.3244,"MEAN_ANOMALY":271.7905,"EPHEMERIS_TYPE":0,"CLASSIFICATION_TYPE":"U","NORAD_CAT_ID":53273,"ELEMENT_SET_NO":999,"REV_AT_EPOCH":17262,"BSTAR":1.0641793e-5,"MEAN_MOTION_DOT":-1.19e-6,"MEAN_MOTION_DDOT":0},{"OBJECT_NAME":"STARLINK-4050","OBJECT_ID":"2022-086AJ","EPOCH":"2025-09-01T11:00:56.475072","MEAN_MOTION":15.08840691,"ECCENTRICITY":0.00016156,"INCLINATION":53.2197,"RA_OF_ASC_NODE":313.6129,"ARG_OF_PERICENTER":107.7987,"MEAN_ANOMALY":252.3181,"EPHEMERIS_TYPE":0,"CLASSIFICATION_TYPE":"U","NORAD_CAT_ID":53274,"ELEMENT_SET_NO":999,"REV_AT_EPOCH":17263,"BSTAR":9.0421478e-5,"MEAN_MOTION_DOT":1.151e-5,"MEAN_MOTION_DDOT":0},{"OBJECT_NAME":"STARLINK-4179","OBJECT_ID":"2022-086AK","EPOCH":"2025-09-01T12:15:07.814304","MEAN_MOTION":15.08841733,"ECCENTRICITY":0.00012712,"INCLINATION":53.218,"RA_OF_ASC_NODE":313.3858,"ARG_OF_PERICENTER":89.743,"MEAN_ANOMALY":270.3708,"EPHEMERIS_TYPE":0,"CLASSIFICATION_TYPE":"U","NORAD_CAT_ID":53275,"ELEMENT_SET_NO":999,"REV_AT_EPOCH":17263,"BSTAR":0.00015103482,"MEAN_MOTION_DOT":2.117e-5,"MEAN_MOTION_DDOT":0},{"OBJECT_NAME":"STARLINK-4174","OBJECT_ID":"2022-086AL","EPOCH":"2025-09-01T12:25:43.513536","MEAN_MOTION":15.08837278,"ECCENTRICITY":0.00013705,"INCLINATION":53.2173,"RA_OF_ASC_NODE":313.3521,"ARG_OF_PERICENTER":85.3893,"MEAN_ANOMALY":274.7256,"EPHEMERIS_TYPE":0,"CLASSIFICATION_TYPE":"U","NORAD_CAT_ID":53276,"ELEMENT_SET_NO":999,"REV_AT_EPOCH":17263,"BSTAR":4.7373737e-5,"MEAN_MOTION_DOT":4.66e-6,"MEAN_MOTION_DDOT":0},{"OBJECT_NAME":"STARLINK-4178","OBJECT_ID":"2022-086AM","EPOCH":"2025-09-01T12:04:32.125440","MEAN_MOTION":15.08834537,"ECCENTRICITY":0.00013394,"INCLINATION":53.2188,"RA_OF_ASC_NODE":313.4465,"ARG_OF_PERICENTER":94.7477,"MEAN_ANOMALY":265.3668,"EPHEMERIS_TYPE":0,"CLASSIFICATION_TYPE":"U","NORAD_CAT_ID":53277,"ELEMENT_SET_NO":999,"REV_AT_EPOCH":17263,"BSTAR":7.3476214e-5,"MEAN_MOTION_DOT":8.82e-6,"MEAN_MOTION_DDOT":0}]
